ELEKTRO-L 1 (GOMS 2)    
1 37344U 11001A   25158.00649171 -.00000143  00000+0  00000+0 0  9990
2 37344   8.8327  58.2453 0005079  25.6930 155.6758  1.00250090 52724
RESOURCESAT-2           
1 37387U 11015A   25158.58027625  .00000098  00000+0  65260-4 0  9991
2 37387  98.8086 222.7096 0005396 206.1676 153.9229 14.21581022732951
YOUTHSAT                
1 37388U 11015B   25158.56006618  .00000203  00000+0  10329-3 0  9992
2 37388  98.3243 145.5475 0014735   7.4526 102.3337 14.25392994734264
APRIZESAT 6             
1 37793U 11044F   25158.58989781  .00000623  00000+0  97068-4 0  9999
2 37793  98.2615  56.2320 0043183 202.0512 208.8365 14.76076656741878
JUGNU                   
1 37839U 11058B   25158.44612385  .00000408  00000+0  73595-4 0  9993
2 37839  19.9615  64.7983 0018522 257.8685 264.3796 14.13603101705930
SRMSAT                  
1 37841U 11058D   25158.27085789  .00000407  00000+0  77657-4 0  9991
2 37841  19.9700 168.5217 0011910  40.2792  58.1286 14.11435449704789
SUOMI NPP               
1 37849U 11061A   25158.56810513  .00000078  00000+0  58084-4 0  9993
2 37849  98.7578  97.8575 0001206  11.7906 348.3298 14.19538104705297
YAOGAN-12               
1 37875U 11066B   25158.56589865  .00006570  00000+0  27551-3 0  9997
2 37875  97.1666 209.5444 0011423 124.7029 235.5287 15.23758459754963
ZIYUAN 3-1 (ZY 3-1)     
1 38046U 12001A   25158.60185706  .00017574  00000+0  28586-3 0  9994
2 38046  97.1988 223.2060 0001456 315.7947  44.3190 15.52735535745673
BEIDOU-2 M4             
1 38251U 12018B   25157.78874652 -.00000094  00000+0  00000+0 0  9990
2 38251  55.9792 316.7434 0011583 270.0713  89.7806  1.86232189 88952
ARIRANG-3 (KOMPSAT-3)   
1 38338U 12025B   25158.61404975  .00000438  00000+0  96073-4 0  9995
2 38338  98.3061 112.1573 0006613 187.9359 172.1739 14.62497618696629
HORYU-2                 
1 38340U 12025D   25158.55628522  .00002424  00000+0  27283-3 0  9990
2 38340  98.1784 273.2032 0007806 332.8560  27.2246 14.87636337692967
CSSWE                   
1 38761U 12048D   25158.53270928  .00011828  00000+0  40425-3 0  9994
2 38761  64.6644 262.0487 0114246 275.2720  83.5380 15.24553119 58948
CP5                     
1 38763U 12048F   25158.53626836  .00007399  00000+0  31608-3 0  9990
2 38763  64.6566 299.4270 0129584 278.9370  79.7104 15.16272933 59753
METOP-B                 
1 38771U 12049A   25158.56710567  .00000107  00000+0  68606-4 0  9997
2 38771  98.5769 212.8411 0001481  64.0445 296.0885 14.21502609660042
SJ-9A                   
1 38860U 12056A   25158.57351937  .00001048  00000+0  12996-3 0  9992
2 38860  97.6248 140.5049 0027461  52.3932 307.9770 14.84395174643990
COSMOS 2484             
1 39059U 13001C   25158.60658461  .00000017  00000+0  52809-4 0  9993
2 39059  82.5015  94.8262 0027065 127.9688 232.3842 12.42923155562024
SARAL                   
1 39086U 13009A   25158.58505578  .00000097  00000+0  51684-4 0  9996
2 39086  98.5535 344.9549 0001443 353.4365   6.6800 14.32705646641966
AAUSAT 3                
1 39087U 13009B   25158.48202767  .00000647  00000+0  22247-3 0  9993
2 39087  98.3667 346.0671 0010314 256.0249 103.9792 14.39227135643261
STRAND-1                
1 39090U 13009E   25158.44690311  .00000279  00000+0  10906-3 0  9999
2 39090  98.3825 343.1992 0007454 271.5152  88.5181 14.36817338643246
BRITE-AUSTRIA           
1 39091U 13009F   25158.45168559  .00000188  00000+0  78779-4 0  9997
2 39091  98.3882 342.4577 0009002 280.3767  79.6405 14.36309601643252
UNIBRITE                
1 39092U 13009G   25158.08209368  .00000191  00000+0  80001-4 0  9996
2 39092  98.3922 342.1141 0007922 277.7045  82.3242 14.36181057643141
AIST-2 (RS-43)          
1 39133U 13015D   25158.63357691  .00003962  00000+0  18582-3 0  9996
2 39133  64.8722  36.8327 0031325 279.3462  80.4125 15.20792208666842
GAOFEN-1                
1 39150U 13018A   25158.50981565  .00000609  00000+0  94533-4 0  9993
2 39150  97.9499 232.2603 0018471  36.5982 323.6486 14.76524494652954
NEE-01 PEGASO           
1 39151U 13018B   25158.30213384  .00002440  00000+0  25368-3 0  9993
2 39151  98.0725 287.1001 0012306 321.8050  38.2294 14.90818833654796
TURKSAT-3USAT           
1 39152U 13018C   25158.20169437  .00002858  00000+0  28000-3 0  9991
2 39152  97.8086 246.2364 0011283 267.4590  92.5337 14.93019182655075
CUBEBUG-1 (CAPITAN BETO)
1 39153U 13018D   25158.62568995  .00002359  00000+0  22841-3 0  9993
2 39153  98.1188 299.0359 0011406 309.1006  50.9198 14.93723435655083
PROBA-V                 
1 39159U 13021A   25158.55767937  .00000090  00000+0  57482-4 0  9992
2 39159  98.3203 151.5482 0004921 137.3575 222.7987 14.23486368627813
ESTCUBE 1               
1 39161U 13021C   25158.58672068  .00001608  00000+0  22053-3 0  9999
2 39161  97.7805 220.1708 0009336 148.2797 211.8979 14.79726900649592
ARIRANG-5 (KOMPSAT-5)   
1 39227U 13042A   25158.59079826  .00001856  00000+0  13683-3 0  9993
2 39227  97.6202 345.5227 0002393  20.5883 339.5439 15.04529116647537
GONETS-M 5              
1 39249U 13048A   25158.55963145  .00000039  00000+0  21440-3 0  9997
2 39249  82.4822 216.9004 0014946 312.1030  47.8778 12.42865015532343
GONETS-M 7              
1 39251U 13048C   25158.53088978  .00000024  00000+0  10082-3 0  9994
2 39251  82.4889 219.6448 0015763 313.1754  46.8008 12.42897315532290
FENGYUN 3C              
1 39260U 13052A   25158.59835192  .00000076  00000+0  59751-4 0  9997
2 39260  98.4540 145.6846 0015263  26.3669 333.8279 14.15626919605566
CASSIOPE                
1 39265U 13055A   25158.54891420  .00014724 -48234-6  23210-3 0  9990
2 39265  80.9402 151.5653 0391465 219.4455 137.7666 14.97720260611095
APRIZESAT 7             
1 39416U 13066A   25158.30645201  .00001374  00000+0  14608-3 0  9997
2 39416  97.7208 113.5515 0037357  16.0979 344.1417 14.90120274625373
ZACUBE-1 (TSHEPISOSAT)  
1 39417U 13066B   25158.11252361  .00003689  00000+0  32200-3 0  9997
2 39417  97.7799 115.1381 0046033  61.3574 299.2265 14.96631193624545
APRIZESAT 8             
1 39425U 13066K   25158.28154889  .00001057  00000+0  12329-3 0  9997
2 39425  97.7761 107.4565 0048575  79.5402 281.1282 14.86455415623958
CINEMA-3 (KHUSAT-2)     
1 39426U 13066L   25158.57374519  .00001547  00000+0  21347-3 0  9998
2 39426  97.8468  75.8613 0092271 346.0271  13.8388 14.76716142619132
TRITON-1                
1 39427U 13066M   25158.57688272  .00002915  00000+0  37219-3 0  9998
2 39427  97.8376  72.4005 0095036  13.9751 346.4057 14.79057456618668
DELFI-N3XT              
1 39428U 13066N   25158.20839532  .00005371  00000+0  54809-3 0  9999
2 39428  97.8356  75.8846 0085359   9.6424 350.6406 14.88354041618725
GOMX-1                  
1 39430U 13066Q   25158.57693348  .00001595  00000+0  25421-3 0  9997
2 39430  97.6839  17.3649 0131908 198.2728 161.3716 14.67629813614937
BRITE-PL1 (LEM)         
1 39431U 13066R   25158.60559391  .00000868  00000+0  18278-3 0  9995
2 39431  97.7540 293.8475 0194107  96.3255 266.0087 14.50591346609613
ICUBE-1                 
1 39432U 13066S   25158.40973693  .00006807  00000+0  36957-3 0  9992
2 39432  97.5352 138.6049 0020409 191.1989 168.8792 15.14677216627486
HUMSAT-D                
1 39433U 13066T   25158.54472432  .00026805  00000+0  78312-3 0  9994
2 39433  97.5012 154.3810 0013261 118.6315 241.6263 15.35190637628761
VELOX-PII               
1 39438U 13066Y   25158.48968518  .00002146  00000+0  22216-3 0  9991
2 39438  97.8295 106.4784 0057238 141.1005 219.4353 14.89916944621984
FIRST-MOVE              
1 39439U 13066Z   25157.89063666  .00026251  00000+0  94186-3 0  9994
2 39439  97.7426 132.1064 0025189   4.0224 356.1212 15.28374337624509
CUBEBUG-2 (LO-74)       
1 39440U 13066AA  25158.59563372  .00002888  00000+0  29549-3 0  9994
2 39440  97.8495 103.1696 0061760 185.1269 174.9323 14.89922838621149
NEE-02 KRYSAOR          
1 39441U 13066AB  25158.63028270  .00001495  00000+0  17760-3 0  9998
2 39441  97.8555  97.0172 0067923 215.5865 144.0811 14.84360329620598
FUNCUBE-1 (AO-73)       
1 39444U 13066AE  25158.34902350  .00005649  00000+0  42356-3 0  9993
2 39444  97.7833 120.2541 0043752  37.5017 322.9246 15.02305890623251
HINCUBE                 
1 39445U 13066AF  25158.32508377  .00004918  00000+0  37875-3 0  9991
2 39445  97.7455 119.4251 0041423  43.7860 316.6636 15.01436515623158
UWE-3                   
1 39446U 13066AG  25158.59290203  .00003072  00000+0  29366-3 0  9993
2 39446  97.8227 109.5267 0054502 124.6724 235.9649 14.92879999621616
SMDC ONE 2.4            
1 39469U 13072H   25158.56318994  .00006958  00000+0  35670-3 0  9991
2 39469 120.4976 358.5016 0171161 333.8858  25.3658 15.06180952 61165
CP8 (IPEX)              
1 39471U 13072K   25158.38557171  .00003627  00000+0  22696-3 0  9990
2 39471 120.4710 323.4476 0183696 324.3497  34.5419 14.99613642 58852
COSMOS 2488             
1 39483U 13076A   25158.56372163  .00000028  00000+0  13226-3 0  9994
2 39483  82.4860  42.1561 0018601 189.5167 170.5563 12.42863154519355
COSMOS 2489             
1 39484U 13076B   25158.61665712  .00000032  00000+0  15715-3 0  9996
2 39484  82.4896  43.3860 0020348 189.9673 170.1006 12.42863655519418
COSMOS 2490             
1 39485U 13076C   25158.58789120  .00000027  00000+0  12312-3 0  9997
2 39485  82.4843  41.6336 0020332 206.6167 153.3871 12.42862014519341
AIST-1 (RS-41)          
1 39492U 13078C   25158.55295577  .00001688  00000+0  15349-3 0  9999
2 39492  82.4161 273.3374 0018817  92.5785 267.7590 14.94500809619261
KAZEOSAT 1              
1 39731U 14024A   25158.54460164  .00000181  00000+0  68244-4 0  9992
2 39731  98.3595 234.4671 0001290  99.4598 260.6738 14.42052791584562
COSMOS 2496             
1 39761U 14028A   25158.54860148  .00000031  00000+0  15362-3 0  9991
2 39761  82.4458 343.3803 0019877 174.2446 185.8866 12.42890366500977
